GSAT0101 (GALILEO-PFM)  
1 37846U 11060A   25096.42914057 -.00000109  00000+0  00000+0 0  9999
2 37846  57.1048 353.5993 0003928   5.1072 354.9262  1.70475896 83806
GSAT0102 (GALILEO-FM2)  
1 37847U 11060B   25097.23083870 -.00000109  00000+0  00000+0 0  9990
2 37847  57.1053 353.5779 0004963 343.4824 193.8877  1.70476013 83699
GSAT0103 (GALILEO-FM3)  
1 38857U 12055A   25095.88220476  .00000038  00000+0  00000+0 0  9991
2 38857  55.5499 113.5562 0005980 282.1779  77.7996  1.70473495 77695
GSAT0201 (GALILEO 5)    
1 40128U 14050A   25096.29822102 -.00000034  00000+0  00000+0 0  9999
2 40128  49.3507 291.2354 1624952 162.5092 203.8178  1.85519749 72158
GSAT0202 (GALILEO 6)    
1 40129U 14050B   25093.32146462 -.00000030  00000+0  00000+0 0  9995
2 40129  49.3699 290.4367 1624485 163.1735 202.9206  1.85520384 72326
GSAT0203 (GALILEO 7)    
1 40544U 15017A   25093.27500628 -.00000103  00000+0  00000+0 0  9993
2 40544  56.8985 353.5785 0003867 294.7341  65.2581  1.70475000 61705
GSAT0204 (GALILEO 8)    
1 40545U 15017B   25097.04935033 -.00000109  00000+0  00000+0 0  9991
2 40545  56.9054 353.4932 0002945 285.9763  74.0213  1.70475525 24816
GSAT0205 (GALILEO 9)    
1 40889U 15045A   25095.64441308 -.00000015  00000+0  00000+0 0  9990
2 40889  55.0969 233.6885 0005089  48.0206 311.9775  1.70473891 59559
GSAT0206 (GALILEO 10)   
1 40890U 15045B   25096.45161363 -.00000022  00000+0  00000+0 0  9990
2 40890  55.0948 233.6616 0002842  50.5536 309.4237  1.70473924 59594
GSAT0209 (GALILEO 12)   
1 41174U 15079A   25097.20690152  .00000046  00000+0  00000+0 0  9995
2 41174  55.5702 113.2318 0005344 314.1899  45.8143  1.70474465 57345
GSAT0208 (GALILEO 11)   
1 41175U 15079B   25096.84027471  .00000044  00000+0  00000+0 0  9991
2 41175  55.5687 113.2392 0004759 314.5403  45.4678  1.70474392 57757
GSAT0211 (GALILEO 14)   
1 41549U 16030A   25096.37736317 -.00000021  00000+0  00000+0 0  9994
2 41549  55.2433 233.7064 0002779  17.3558 342.6062  1.70473949 55227
GSAT0210 (GALILEO 13)   
1 41550U 16030B   25095.46198381 -.00000013  00000+0  00000+0 0  9999
2 41550  55.2437 233.7300 0001860 198.2692 161.6794  1.70473967 55203
GSAT0207 (GALILEO 15)   
1 41859U 16069A   25095.15399864  .00000033  00000+0  00000+0 0  9999
2 41859  55.2356 113.2183 0005736 302.7181  57.2687  1.70474391 51936
GSAT0212 (GALILEO 16)   
1 41860U 16069B   25093.83478301  .00000029  00000+0  00000+0 0  9993
2 41860  55.2325 113.2507 0004131 323.3292  36.6834  1.70474560 52163
GSAT0213 (GALILEO 17)   
1 41861U 16069C   25096.54920764  .00000041  00000+0  00000+0 0  9994
2 41861  55.2365 113.1827 0005842 288.3949  71.5875  1.70474894 52074
GSAT0214 (GALILEO 18)   
1 41862U 16069D   25096.69475763  .00000042  00000+0  00000+0 0  9996
2 41862  55.2353 113.1719 0004868 291.5847  68.4098  1.70474696 52209
GSAT0215 (GALILEO 19)   
1 43055U 17079A   25097.18490354 -.00000028  00000+0  00000+0 0  9997
2 43055  55.2209 233.5021 0000395 258.5215 101.4236  1.70474622 45552
GSAT0216 (GALILEO 20)   
1 43056U 17079B   25095.71663905 -.00000016  00000+0  00000+0 0  9996
2 43056  55.2223 233.5423 0001754 289.6250  70.3107  1.70474704 45540
GSAT0217 (GALILEO 21)   
1 43057U 17079C   25097.11038625 -.00000027  00000+0  00000+0 0  9990
2 43057  55.2200 233.5024 0001601 329.2377  30.7027  1.70474679 45558
GSAT0218 (GALILEO 22)   
1 43058U 17079D   25095.57070271 -.00000015  00000+0  00000+0 0  9999
2 43058  55.2200 233.5423 0002184 280.6902  79.2403  1.70474591 45552
GSAT0221 (GALILEO 25)   
1 43564U 18060A   25095.47266847 -.00000108  00000+0  00000+0 0  9990
2 43564  57.2800 353.5935 0004601 310.8609  49.1288  1.70475451 41705
GSAT0222 (GALILEO 26)   
1 43565U 18060B   25096.86480187 -.00000108  00000+0  00000+0 0  9990
2 43565  57.2832 353.5585 0003039 288.0298  71.9670  1.70475282 41773
GSAT0219 (GALILEO 23)   
1 43566U 18060C   25094.73991027 -.00000107  00000+0  00000+0 0  9994
2 43566  57.2828 353.6175 0004195 322.2770  37.7238  1.70475370 41717
GSAT0220 (GALILEO 24)   
1 43567U 18060D   25096.13388623 -.00000108  00000+0  00000+0 0  9994
2 43567  57.2821 353.5794 0004319 315.2681  44.7266  1.70475510 41724
GSAT0223 (GALILEO 27)   
1 49809U 21116A   25095.69884939 -.00000108  00000+0  00000+0 0  9996
2 49809  57.2727 353.4839 0001011 289.3119 254.2909  1.70475434 20720
GSAT0224 (GALILEO 28)   
1 49810U 21116B   25097.25578428 -.00000108  00000+0  00000+0 0  9995
2 49810  57.2725 353.4397 0001303 290.5210 241.1603  1.70475704 20770
GSAT0225 (GALILEO 29)   
1 59598U 24079A   25095.82092884  .00000036  00000+0  00000+0 0  9997
2 59598  54.8539 113.3131 0003037 254.1007 108.8633  1.70474834  5863
GSAT0227 (GALILEO 30)   
1 59600U 24079C   25094.82633927  .00000031  00000+0  00000+0 0  9994
2 59600  54.8485 113.3414 0000340 289.3926  70.6453  1.70474726  5894
GSAT0232 (GALILEO 32)   
1 61182U 24167A   25097.14178635 -.00000027  00000+0  00000+0 0  9994
2 61182  55.3308 233.2750 0002981 194.4611 341.7328  1.70474193  3447
GSAT0226 (GALILEO 31)   
1 61183U 24167B   25096.73502853 -.00000024  00000+0  00000+0 0  9999
2 61183  55.3299 233.2917 0001878 147.5782 251.5426  1.70474305  3413
